     2.11           NAVIGATION DATA                         RINEX VERSION / TYPE
TTS-4               NOVJ                20180626 23:59:43UTCPGM / RUN BY / DATE 
    4.6566E-09  1.4901E-08 -5.9605E-08 -1.1921E-07          ION ALPHA           
    8.1920E+04  9.8304E+04 -6.5536E+04 -5.2429E+05          ION BETA            
    5.587935447693E-09 1.953992523340E-14   405504     2007 DELTA-UTC: A0,A1,T,W
    18                                                      LEAP SECONDS        
                                                            END OF HEADER       
24 18  6 27  8  0  0.0-5.176523700356E-05-5.684341886081E-13 0.000000000000E+00
    3.500000000000E+01 5.678125000000E+01 4.766269962847E-09 2.118136872560E+00
    2.935528755188E-06 6.978094344959E-03 1.061335206032E-05 5.153649032593E+03
    2.880000000000E+05-1.974403858185E-07-1.560255367127E-01 1.862645149231E-08
    9.417410640954E-01 1.652500000000E+02 5.384746243723E-01-7.958188633357E-09
   -3.039412318009E-10 1.000000000000E+00 2.007000000000E+03 0.000000000000E+00
    2.000000000000E+00 0.000000000000E+00 2.793967723846E-09 3.500000000000E+01
    2.808000000000E+05 4.000000000000E+00
28 18  6 27  8  0  0.0 7.268711924553E-04 2.842170943040E-12 0.000000000000E+00
    2.500000000000E+01 9.287500000000E+01 4.107313943255E-09-1.383551442402E+00
    5.031004548073E-06 1.946772122756E-02 3.071501851082E-06 5.153682998657E+03
    2.880000000000E+05-2.197921276093E-07 1.020192575481E+00 4.693865776062E-07
    9.855754045316E-01 3.364687500000E+02-1.517739851728E+00-8.168911696533E-09
    5.857386840816E-11 1.000000000000E+00 2.007000000000E+03 0.000000000000E+00
    4.000000000000E+00 0.000000000000E+00-1.117587089539E-08 2.500000000000E+01
    2.808000000000E+05 4.000000000000E+00
30 18  6 27  8  0  0.0 5.760835483670E-05-4.547473508865E-12 0.000000000000E+00
    1.500000000000E+01 7.300000000000E+01 4.718410826464E-09 1.201237158086E+00
    3.995373845100E-06 3.522971877828E-03 1.061148941517E-05 5.153729890823E+03
    2.880000000000E+05 3.352761268616E-08-6.268650490455E-02 9.313225746155E-09
    9.442926302184E-01 1.629062500000E+02-3.043487092357E+00-8.021405552310E-09
   -3.453715289676E-10 1.000000000000E+00 2.007000000000E+03 0.000000000000E+00
    2.000000000000E+00 0.000000000000E+00 3.725290298462E-09 1.500000000000E+01
    2.808000000000E+05 4.000000000000E+00
 6 18  6 27  8  0  0.0 3.925259225070E-04-3.410605131648E-12 0.000000000000E+00
    5.300000000000E+01-8.546875000000E+01 3.785871982478E-09 1.987549114244E+00
   -4.334375262260E-06 1.102238660678E-03 1.030974090099E-05 5.153656089783E+03
    2.880000000000E+05 4.097819328308E-08 3.025233606631E+00 2.980232238770E-08
    9.717787835841E-01 1.857812500000E+02-1.055167071487E+00-7.564600810273E-09
    2.357241045694E-10 1.000000000000E+00 2.007000000000E+03 0.000000000000E+00
    2.000000000000E+00 0.000000000000E+00 4.656612873077E-09 5.300000000000E+01
    2.808300000000E+05 4.000000000000E+00
11 18  6 27  8  0  0.0-7.324041798711E-04 1.364242052659E-12 0.000000000000E+00
    6.100000000000E+01-1.405312500000E+02 5.456655863048E-09 1.151830388599E+00
   -7.541850209236E-06 1.692836044822E-02 7.228925824165E-06 5.153649194717E+03
    2.880000000000E+05-3.352761268616E-08 2.604744979912E+00-4.079192876816E-07
    9.059779133423E-01 2.148437500000E+02 1.774002947966E+00-8.723577657739E-09
   -8.750364487804E-11 1.000000000000E+00 2.007000000000E+03 0.000000000000E+00
    2.000000000000E+00 0.000000000000E+00-1.210719347000E-08 6.100000000000E+01
    2.808300000000E+05 4.000000000000E+00
19 18  6 27  8  0  0.0-4.251315258443E-04 3.069544618484E-12 0.000000000000E+00
    8.200000000000E+01-9.084375000000E+01 4.045525655239E-09 5.427956513548E-01
   -4.623085260391E-06 9.909106418490E-03 3.466382622719E-06 5.153715131760E+03
    2.880000000000E+05-2.365559339523E-07 2.078553590660E+00-8.195638656616E-08
    9.803025767143E-01 3.288750000000E+02 1.216919571139E+00-8.080336578452E-09
   -3.543004723225E-10 1.000000000000E+00 2.007000000000E+03 0.000000000000E+00
    2.000000000000E+00 0.000000000000E+00-1.536682248116E-08 8.200000000000E+01
    2.808300000000E+05 4.000000000000E+00
22 18  6 27  8  0  0.0-4.393118433654E-04-1.227817847393E-11 0.000000000000E+00
    9.000000000000E+01 2.350000000000E+01 5.467727752808E-09-2.983889780358E+00
    9.629875421524E-07 7.329732878134E-03 6.986781954765E-06 5.153776195526E+03
    2.880000000000E+05 1.713633537292E-07-2.267982203591E+00 5.401670932770E-08
    9.251602789020E-01 2.218750000000E+02-1.519624268690E+00-8.282130698273E-09
    6.514557071737E-10 1.000000000000E+00 2.007000000000E+03 0.000000000000E+00
    2.000000000000E+00 0.000000000000E+00-1.769512891769E-08 9.000000000000E+01
    2.808300000000E+05 4.000000000000E+00
13 18  6 27  8  0  0.0-9.308522567153E-05 3.410605131648E-13 0.000000000000E+00
    1.700000000000E+01-2.181250000000E+01 4.658408327120E-09 2.676490859570E+00
   -1.233071088791E-06 3.309122286737E-03 7.167458534241E-06 5.153656154633E+03
    2.880000000000E+05 2.607703208923E-08-1.041009930471E+00-6.705522537231E-08
    9.680769995842E-01 2.456250000000E+02 1.547874590481E+00-7.887471401986E-09
   -4.400183285296E-10 1.000000000000E+00 2.007000000000E+03 0.000000000000E+00
    2.000000000000E+00 0.000000000000E+00-1.117587089539E-08 1.700000000000E+01
    2.808300000000E+05 4.000000000000E+00
32 18  6 27  8  0  0.0-4.865708760917E-04 7.162270776462E-12 0.000000000000E+00
    2.400000000000E+01-1.975000000000E+01 5.016994692252E-09-1.580693229463E+00
   -9.797513484955E-07 2.228971919976E-03 6.286427378654E-06 5.153670362473E+03
    2.880000000000E+05 3.352761268616E-08-1.168090453873E+00 5.774199962616E-08
    9.566447995015E-01 2.553437500000E+02-2.531412198405E+00-8.114266563201E-09
   -3.128701751558E-10 1.000000000000E+00 2.007000000000E+03 0.000000000000E+00
    2.000000000000E+00 0.000000000000E+00 4.656612873077E-10 2.400000000000E+01
    2.811900000000E+05 4.000000000000E+00
14 18  6 27  8  0  0.0-9.751459583640E-05-1.136868377216E-13 0.000000000000E+00
    2.500000000000E+01-2.103125000000E+01 4.835915721015E-09-2.618022776963E+00
   -1.123175024986E-06 1.000569271855E-02 6.712973117828E-06 5.153592651367E+03
    2.880000000000E+05 2.458691596985E-07-1.083120786637E+00 1.676380634308E-08
    9.605965786461E-01 2.471250000000E+02-1.948294646589E+00-7.913543916583E-09
   -3.603721538038E-10 1.000000000000E+00 2.007000000000E+03 0.000000000000E+00
    2.000000000000E+00 0.000000000000E+00-9.778887033463E-09 2.500000000000E+01
    2.848800000000E+05 4.000000000000E+00
 2 18  6 27  8  0  0.0 7.414445281029E-05-1.080024958355E-11 0.000000000000E+00
    1.500000000000E+01-9.396875000000E+01 4.137315192927E-09 2.152937284240E+00
   -4.922971129417E-06 1.790863496717E-02 9.872019290924E-06 5.153771518707E+03
    2.880000000000E+05 1.918524503708E-07 2.971814567800E+00-3.501772880554E-07
    9.511223364173E-01 1.811875000000E+02-1.849952974767E+00-7.598530795022E-09
    2.153661137202E-10 1.000000000000E+00 2.007000000000E+03 0.000000000000E+00
    2.000000000000E+00 0.000000000000E+00-2.048909664154E-08 1.500000000000E+01
    2.852700000000E+05 4.000000000000E+00
25 18  6 27  8  0  0.0-6.072563119233E-04-5.798028723802E-12 0.000000000000E+00
    6.500000000000E+01 9.603125000000E+01 4.393397288346E-09 9.267721790955E-02
    5.088746547699E-06 7.477916660719E-03 3.186985850334E-06 5.153629468918E+03
    2.880000000000E+05 2.048909664154E-08 9.369028531473E-01 1.266598701477E-07
    9.739573641136E-01 3.226250000000E+02 8.697517665722E-01-8.268915862108E-09
    9.857553463812E-11 1.000000000000E+00 2.007000000000E+03 0.000000000000E+00
    2.000000000000E+00 0.000000000000E+00 6.053596735001E-09 6.500000000000E+01
    2.865300000000E+05 4.000000000000E+00
17 18  6 27  7 59 44.0-8.410355076194E-05 3.865352482535E-12 0.000000000000E+00
    2.000000000000E+00-9.403125000000E+01 3.942307070056E-09-2.357164589207E+00
   -4.762783646584E-06 1.237214077264E-02 2.566725015640E-06 5.153577033997E+03
    2.879840000000E+05 1.862645149231E-07 2.031607945311E+00-1.080334186554E-07
    9.827302131951E-01 3.425625000000E+02-1.778460708050E+00-7.763894825954E-09
   -2.442958901901E-10 1.000000000000E+00 2.007000000000E+03 0.000000000000E+00
    2.000000000000E+00 0.000000000000E+00-1.117587089539E-08 2.000000000000E+00
    2.869500000000E+05 4.000000000000E+00
28 18  6 27  7 59 28.0 7.268823683262E-04 3.069544618484E-12 0.000000000000E+00
    2.600000000000E+01 9.287500000000E+01 4.107671100989E-09-1.388218907404E+00
    5.031004548073E-06 1.946772169322E-02 3.071501851082E-06 5.153682992935E+03
    2.879680000000E+05-2.197921276093E-07 1.020192841733E+00 4.693865776062E-07
    9.855753986799E-01 3.364687500000E+02-1.517739733232E+00-8.168911696533E-09
    5.857386840816E-11 1.000000000000E+00 2.007000000000E+03 0.000000000000E+00
    2.000000000000E+00 0.000000000000E+00-1.117587089539E-08 2.600000000000E+01
    2.870100000000E+05 4.000000000000E+00
 2 18  6 27 10  0  0.0 7.406622171402E-05-1.080024958355E-11 0.000000000000E+00
    1.600000000000E+01-1.028437500000E+02 4.135529404256E-09-3.080088781901E+00
   -5.172565579414E-06 1.790958980564E-02 9.959563612938E-06 5.153769353867E+03
    2.952000000000E+05 1.825392246246E-07 2.971761190308E+00-1.080334186554E-07
    9.511240202360E-01 1.787500000000E+02-1.849993342528E+00-7.456382016812E-09
    1.535778257043E-10 1.000000000000E+00 2.007000000000E+03 0.000000000000E+00
    2.000000000000E+00 0.000000000000E+00-2.048909664154E-08 1.600000000000E+01
    2.880000000000E+05 4.000000000000E+00
